NORAD_CAT_ID,OBJECT_NAME,OBJECT_TYPE,EPOCH,MEAN_MOTION,ECCENTRICITY,INCLINATION,RA_OF_ASC_NODE,ARG_OF_PERICENTER,MEAN_ANOMALY,BSTAR,MEAN_MOTION_DOT,MEAN_MOTION_DDOT,TLE_LINE0,TLE_LINE1,TLE_LINE2,SEMIMAJOR_AXIS,PERIOD,APOGEE,PERIGEE,DECAYED
53543.0,STARLINK-4297,PAYLOAD,2023-07-19 18:50:27,15.08823619,0.0001359,53.2174,71.3226,88.1986,271.9162,4.1637e-05,3.75e-06,0.0,0 STARLINK-4297,1 53543U 22101S   23200.78504256  .00000375  00000-0  41637-4 0  9990,2 53543  53.2174  71.3226 0001359  88.1986 271.9162 15.08823619 50784,6917.93,95.439,540.736,538.855,0.0
53543.0,STARLINK-4297,PAYLOAD,2023-07-20 15:30:27,15.0883319,0.0001149,53.2176,67.4565,101.5942,258.518,0.00013604,1.878e-05,0.0,0 STARLINK-4297,1 53543U 22101S   23201.64615053  .00001878  00000-0  13604-3 0  9995,2 53543  53.2176  67.4565 0001149 101.5942 258.5180 15.08833190 50918,6917.901,95.438,540.561,538.971,0.0
53543.0,STARLINK-4297,PAYLOAD,2023-07-21 01:02:45,15.0884335,0.0001312,53.218,65.6718,99.3749,260.7391,0.00018418,2.645e-05,0.0,0 STARLINK-4297,1 53543U 22101S   23202.04358411  .00002645  00000-0  18418-3 0  9993,2 53543  53.2180  65.6718 0001312  99.3749 260.7391 15.08843350 50978,6917.87,95.437,540.643,538.828,0.0
53543.0,STARLINK-4297,PAYLOAD,2023-07-24 00:35:08,15.08816008,0.0001898,53.2181,52.2909,130.0088,230.107,0.00021638,3.155e-05,0.0,0 STARLINK-4297,1 53543U 22101S   23205.02440534  .00003155  00000-0  21638-3 0  9997,2 53543  53.2181  52.2909 0001898 130.0088 230.1070 15.08816008 52114,6917.954,95.439,541.132,538.506,0.0
53543.0,STARLINK-4297,PAYLOAD,2023-07-25 13:09:00,15.08831014,0.0001292,53.2184,45.4518,84.0238,276.0902,1.8285e-05,3e-08,0.0,0 STARLINK-4297,1 53543U 22101S   23206.54792669  .00000003  00000-0  18285-4 0  9998,2 53543  53.2184  45.4518 0001292  84.0238 276.0902 15.08831014 52342,6917.908,95.438,540.667,538.879,0.0
53543.0,STARLINK-4297,PAYLOAD,2023-07-25 19:30:33,15.0884103,0.0001332,53.2187,44.261,87.9844,272.1301,6.797e-06,-1.8e-06,0.0,0 STARLINK-4297,1 53543U 22101S   23206.81288251 -.00000180  00000-0  67970-5 0  9998,2 53543  53.2187  44.2610 0001332  87.9844 272.1301 15.08841030 52388,6917.877,95.437,540.664,538.821,0.0
53543.0,STARLINK-4297,PAYLOAD,2023-07-26 16:10:33,15.08851144,0.0001194,53.2183,40.3968,86.4182,273.6947,4.3075e-06,-2.19e-06,0.0,0 STARLINK-4297,1 53543U 22101S   23207.67399476 -.00000219  00000-0  43075-5 0  9998,2 53543  53.2183  40.3968 0001194  86.4182 273.6947 15.08851144 51829,6917.846,95.437,540.537,538.885,0.0
53543.0,STARLINK-4297,PAYLOAD,2023-07-26 22:32:04,15.08859368,0.0001211,53.2178,39.2068,90.0358,270.0773,6.9958e-05,8.26e-06,0.0,0 STARLINK-4297,1 53543U 22101S   23207.93894536  .00000826  00000-0  69958-4 0  9994,2 53543  53.2178  39.2068 0001211  90.0358 270.0773 15.08859368 51865,6917.821,95.436,540.524,538.848,0.0
53543.0,STARLINK-4297,PAYLOAD,2023-07-27 12:50:34,15.08828062,0.0001118,53.2182,36.5309,99.0713,261.0406,2.2987e-05,7.8e-07,0.0,0 STARLINK-4297,1 53543U 22101S   23208.53512651  .00000078  00000-0  22987-4 0  9996,2 53543  53.2182  36.5309 0001118  99.0713 261.0406 15.08828062 52645,6917.917,95.438,540.555,539.008,0.0
53543.0,STARLINK-4297,PAYLOAD,2023-07-27 19:12:07,15.08830372,9.62e-05,53.2174,35.3408,85.5756,274.5346,-2.8138e-05,-7.35e-06,0.0,0 STARLINK-4297,1 53543U 22101S   23208.80008848 -.00000735  00000-0 -28138-4 0  9990,2 53543  53.2174  35.3408 0000962  85.5756 274.5346 15.08830372 51992,6917.91,95.438,540.44,539.109,0.0
53543.0,STARLINK-4297,PAYLOAD,2023-07-28 11:05:58,15.08858658,0.0001035,53.2169,32.3673,97.5551,262.5558,-0.00030037,-5.067e-05,0.0,0 STARLINK-4297,1 53543U 22101S   23209.46248618 -.00005067  00000-0 -30037-3 0  9997,2 53543  53.2169  32.3673 0001035  97.5551 262.5558 15.08858658 52096,6917.823,95.436,540.404,538.972,0.0
53543.0,STARLINK-4297,PAYLOAD,2023-07-29 10:56:45,15.08836692,8.29e-05,53.2171,27.9062,89.5048,270.6039,0.00014666,2.047e-05,0.0,0 STARLINK-4297,1 53543U 22101S   23210.45608317  .00002047  00000-0  14666-3 0  9997,2 53543  53.2171  27.9062 0000829  89.5048 270.6039 15.08836692 52248,6917.891,95.438,540.329,539.182,0.0
53543.0,STARLINK-4297,PAYLOAD,2023-07-29 18:53:40,15.08847662,7.96e-05,53.2171,26.4201,87.961,272.1473,0.00024776,3.658e-05,0.0,0 STARLINK-4297,1 53543U 22101S   23210.78727551  .00003658  00000-0  24776-3 0  9997,2 53543  53.2171  26.4201 0000796  87.9610 272.1473 15.08847662 52290,6917.857,95.437,540.273,539.171,0.0
53543.0,STARLINK-4297,PAYLOAD,2023-07-30 10:47:32,15.08839157,9.68e-05,53.2167,23.4477,76.6152,283.4948,7.6591e-05,9.31e-06,0.0,0 STARLINK-4297,1 53543U 22101S   23211.44968693  .00000931  00000-0  76591-4 0  9999,2 53543  53.2167  23.4477 0000968  76.6152 283.4948 15.08839157 52397,6917.883,95.438,540.418,539.078,0.0
53543.0,STARLINK-4297,PAYLOAD,2023-07-31 18:35:15,15.08842936,8.26e-05,53.2173,17.4995,84.8271,275.2815,-9.3385e-06,-4.36e-06,0.0,0 STARLINK-4297,1 53543U 22101S   23212.77448314 -.00000436  00000-0 -93385-5 0  9992,2 53543  53.2173  17.4995 0000826  84.8271 275.2815 15.08842936 52591,6917.871,95.437,540.308,539.165,0.0
53543.0,STARLINK-4297,PAYLOAD,2023-08-02 10:19:54,15.08840534,8.71e-05,53.217,10.0657,86.5882,273.521,0.00017147,2.442e-05,0.0,0 STARLINK-4297,1 53543U 22101S   23214.43048832  .00002442  00000-0  17147-3 0  9995,2 53543  53.2170  10.0657 0000871  86.5882 273.5210 15.08840534 52849,6917.879,95.438,540.346,539.141,0.0
53543.0,STARLINK-4297,PAYLOAD,2023-08-02 21:27:35,15.08855218,8.47e-05,53.2176,7.983,85.7096,274.3993,0.00028662,4.279e-05,0.0,0 STARLINK-4297,1 53543U 22101S   23214.89416038  .00004279  00000-0  28662-3 0  9996,2 53543  53.2176   7.9830 0000847  85.7096 274.3993 15.08855218 52914,6917.834,95.437,540.285,539.113,0.0
53543.0,STARLINK-4297,PAYLOAD,2023-08-03 10:10:41,15.08844773,0.000106,53.2165,5.6053,77.8963,282.2148,0.00014496,2.02e-05,0.0,0 STARLINK-4297,1 53543U 22101S   23215.42408601  .00002020  00000-0  14496-3 0  9995,2 53543  53.2165   5.6053 0001060  77.8963 282.2148 15.08844773 52999,6917.866,95.437,540.464,538.998,0.0
53543.0,STARLINK-4297,PAYLOAD,2023-08-03 21:18:22,15.08856002,8.46e-05,53.218,3.5232,78.5425,281.5662,0.00024857,3.672e-05,0.0,0 STARLINK-4297,1 53543U 22101S   23215.88775853  .00003672  00000-0  24857-3 0  9997,2 53543  53.2180   3.5232 0000846  78.5425 281.5662 15.08856002 53064,6917.831,95.437,540.282,539.111,0.0
53543.0,STARLINK-4297,PAYLOAD,2023-08-04 10:01:28,15.08833565,0.000101,53.2178,1.1434,78.8784,281.2322,-3.0228e-06,-3.36e-06,0.0,0 STARLINK-4297,1 53543U 22101S   23216.41769108 -.00000336  00000-0 -30228-5 0  9990,2 53543  53.2178   1.1434 0001010  78.8784 281.2322 15.08833565 53142,6917.9,95.438,540.464,539.066,0.0
53543.0,STARLINK-4297,PAYLOAD,2023-08-04 21:09:10,15.08843398,9.76e-05,53.218,359.0612,76.2104,283.8996,0.00048803,7.488e-05,0.0,0 STARLINK-4297,1 53543U 22101S   23216.88136850  .00007488  00000-0  48803-3 0  9992,2 53543  53.2180 359.0612 0000976  76.2104 283.8996 15.08843398 53214,6917.87,95.437,540.41,539.06,0.0
53543.0,STARLINK-4297,PAYLOAD,2023-08-06 01:46:06,15.08836153,9.9e-05,53.2179,353.7099,103.3637,256.7466,-0.00042998,-7.124e-05,0.0,0 STARLINK-4297,1 53543U 22101S   23218.07368531 -.00007124  00000-0 -42998-3 0  9996,2 53543  53.2179 353.7099 0000990 103.3637 256.7466 15.08836153 53392,6917.892,95.438,540.442,539.072,0.0
53543.0,STARLINK-4297,PAYLOAD,2023-08-06 17:39:58,15.08823302,9.33e-05,53.2178,350.7366,90.7833,269.3266,-0.00025013,-4.264e-05,0.0,0 STARLINK-4297,1 53543U 22101S   23218.73609525 -.00004264  00000-0 -25013-3 0  9991,2 53543  53.2178 350.7366 0000933  90.7833 269.3266 15.08823302 53490,6917.931,95.439,540.442,539.151,0.0
53543.0,STARLINK-4297,PAYLOAD,2023-08-07 09:33:50,15.08836263,8.87e-05,53.2173,347.763,93.4553,266.6541,0.00060255,9.314e-05,0.0,0 STARLINK-4297,1 53543U 22101S   23219.39850105  .00009314  00000-0  60255-3 0  9992,2 53543  53.2173 347.7630 0000887  93.4553 266.6541 15.08836263 53599,6917.892,95.438,540.37,539.143,0.0
53543.0,STARLINK-4297,PAYLOAD,2023-08-08 17:21:32,15.08870503,9.17e-05,53.2164,341.8161,102.6482,257.4612,0.0011671,0.00018351,0.0,0 STARLINK-4297,1 53543U 22101S   23220.72329185  .00018351  00000-0  11671-2 0  9998,2 53543  53.2164 341.8161 0000917 102.6482 257.4612 15.08870503 53795,6917.787,95.436,540.287,539.018,0.0
53543.0,STARLINK-4297,PAYLOAD,2023-08-09 17:12:20,15.08841037,8.82e-05,53.216,337.356,57.1575,302.9502,0.0016812,0.0002657,0.0,0 STARLINK-4297,1 53543U 22101S   23221.71690048  .00026570  00000-0  16812-2 0  9991,2 53543  53.2160 337.3560 0000882  57.1575 302.9502 15.08841037 53943,6917.877,95.437,540.352,539.132,0.0
53543.0,STARLINK-4297,PAYLOAD,2023-08-10 17:03:07,15.08854007,9.84e-05,53.2164,332.895,73.7676,286.3425,0.00083723,0.00013067,0.0,0 STARLINK-4297,1 53543U 22101S   23222.71049990  .00013067  00000-0  83723-3 0  9999,2 53543  53.2164 332.8950 0000984  73.7676 286.3425 15.08854007 54096,6917.838,95.437,540.383,539.022,0.0
53543.0,STARLINK-4297,PAYLOAD,2023-08-11 01:00:02,15.08845284,8.37e-05,53.2181,331.4045,129.9648,230.1418,0.00040263,6.127e-05,0.0,0 STARLINK-4297,1 53543U 22101S   23223.04169812  .00006127  00000-0  40263-3 0  9993,2 53543  53.2181 331.4045 0000837 129.9648 230.1418 15.08845284 54147,6917.864,95.437,540.308,539.15,0.0
53543.0,STARLINK-4297,PAYLOAD,2023-08-12 10:23:08,15.08843655,9.9e-05,53.2161,325.1636,83.0382,277.0722,7.0321e-05,8.32e-06,0.0,0 STARLINK-4297,1 53543U 22101S   23224.43273877  .00000832  00000-0  70321-4 0  9990,2 53543  53.2161 325.1636 0000990  83.0382 277.0722 15.08843655 54357,6917.869,95.437,540.419,539.049,0.0
53543.0,STARLINK-4297,PAYLOAD,2023-08-13 11:49:19,15.08842105,0.0001267,53.2179,320.4074,81.1053,279.0083,0.00011442,1.534e-05,0.0,0 STARLINK-4297,1 53543U 22101S   23225.49258104  .00001534  00000-0  11442-3 0  9991,2 53543  53.2179 320.4074 0001267  81.1053 279.0083 15.08842105 54511,6917.874,95.437,540.615,538.862,0.0
